{"spkid": "54016489", "covariance": {"labels": ["e", "q", "tp", "node", "peri", "i"], "data": [["4.995649769542308E-15", "-8.288201744617915E-15", "-2.227084126944346E-12", "-1.021153107871193E-14", "-1.099059360220881E-12", "2.63835574383188E-14"], ["-8.288201744617915E-15", "1.399209471034703E-14", "3.982132093712942E-12", "1.351054566373987E-14", "1.879808034520023E-12", "-7.678266761800588E-14"], ["-2.227084126944346E-12", "3.982132093712942E-12", "1.344312933003922E-9", "-2.619279334854338E-12", "5.683138437052044E-10", "-6.835358680906607E-11"], ["-1.021153107871193E-14", "1.351054566373987E-14", "-2.619279334854338E-12", "5.045113260103174E-12", "-5.46121789907065E-12", "-7.205498302279816E-12"], ["-1.099059360220881E-12", "1.879808034520023E-12", "5.683138437052044E-10", "-5.46121789907065E-12", "2.712894394275382E-10", "-2.343838833314644E-11"], ["2.63835574383188E-14", "-7.678266761800588E-14", "-6.835358680906607E-11", "-7.205498302279816E-12", "-2.343838833314644E-11", "8.014502995696513E-10"]], "elements": [{"sigma": 7.0679910650356e-08, "name": "e", "value": ".426914373442881", "title": "eccentricity", "units": null, "label": "e"}, {"name": "q", "sigma": 1.18288184998955e-07, "title": "perihelion distance", "value": ".7344245562188246", "units": "au", "label": "q"}, {"label": "tp", "units": "TDB", "value": "2459422.157323702920", "title": "time of perihelion passage", "sigma": 3.66648732849838e-05, "name": "tp"}, {"label": "node", "units": "deg", "title": "longitude of the ascending node", "value": "22.9039939479493", "name": "om", "sigma": 2.24613295690686e-06}, {"label": "peri", "name": "w", "sigma": 1.64708663836344e-05, "title": "argument of perihelion", "value": "93.03194694571732", "units": "deg"}, {"label": "i", "sigma": 2.83098975549127e-05, "name": "i", "units": "deg", "value": "42.98129131564755", "title": "inclination"}], "epoch": "2459338.5"}, "elements": [{"name": "e", "sigma": "7.0881E-8", "units": null, "title": "eccentricity", "value": ".4268640181377024", "label": "e"}, {"label": "a", "sigma": "5.3123E-8", "name": "a", "units": "au", "title": "semi-major axis", "value": "1.281442501256641"}, {"units": "au", "value": ".7344408061578036", "title": "perihelion distance", "sigma": "1.1818E-7", "name": "q", "label": "q"}, {"label": "i", "units": "deg", "title": "inclination; angle with respect to x-y ecliptic plane", "value": "42.98187302046132", "name": "i", "sigma": "2.831E-5"}, {"title": "longitude of the ascending node", "value": "22.88695741266161", "units": "deg", "name": "om", "sigma": "2.2453E-6", "label": "node"}, {"sigma": "1.6526E-5", "name": "w", "value": "93.01974441415514", "title": "argument of perihelion", "units": "deg", "label": "peri"}, {"label": "M", "name": "ma", "sigma": ".0001008", "units": "deg", "title": "mean anomaly", "value": "128.2086108110456"}, {"label": "tp", "units": "TDB", "value": "2461011.804385579416", "title": "time of perihelion passage", "sigma": ".00013663", "name": "tp"}, {"title": "sidereal orbital period", "value": "529.8428924678565", "units": "d", "name": "per", "sigma": "3.2947E-5", "label": "period"}, {"name": "n", "sigma": "4.225E-8", "units": "deg/d", "value": ".6794466909298775", "title": "mean motion", "label": "n"}, {"label": "Q", "name": "ad", "sigma": "7.5799E-8", "units": "au", "title": "aphelion distance", "value": "1.828444196355479"}], "epoch": "2461200.5"}